(Exported by FreeCAD)
(Post Processor: linuxcnc_post)
(Output Time:2026-08-21 17:05:43.081286)
(begin preamble)
G17 G54 G40 G49 G80 G90
G21
(begin operation: Fixture)
(machine units: mm/min)
G54 
(finish operation: Fixture)
(begin operation: TC: 3mm End bit)
(machine units: mm/min)
(TC: 3mm End bit) 
M5 
M3 S18000 
(finish operation: TC: 3mm End bit)
(begin operation: LeadInOutDressup)
(machine units: mm/min)
(Profile001) 
(Compensated Tool Path. Diameter: 3.0) 
G0 Z5.000 
G0 X21.061 Y21.061 
G0 Z3.000 
G1 Z-1.000 F150.000 
G2 X21.500 Y20.000 Z-1.000 I-1.061 J-1.061 F300.000 
G1 X21.500 Y0.000 Z-1.000 F300.000 
G2 X20.000 Y-1.500 Z-1.000 I-1.500 J0.000 F300.000 
G1 X0.000 Y-1.500 Z-1.000 F300.000 
G2 X-1.500 Y0.000 Z-1.000 I0.000 J1.500 F300.000 
G1 X-1.500 Y20.000 Z-1.000 F300.000 
G2 X0.000 Y21.500 Z-1.000 I1.500 J-0.000 F300.000 
G1 X20.000 Y21.500 Z-1.000 F300.000 
G2 X21.061 Y21.061 Z-1.000 I-0.000 J-1.500 F300.000 
G0 Z5.000 
G0 X21.061 Y21.061 
G0 Z3.000 
G1 Z-2.000 F150.000 
G2 X21.500 Y20.000 Z-2.000 I-1.061 J-1.061 F300.000 
G1 X21.500 Y0.000 Z-2.000 F300.000 
G2 X20.000 Y-1.500 Z-2.000 I-1.500 J0.000 F300.000 
G1 X0.000 Y-1.500 Z-2.000 F300.000 
G2 X-1.500 Y0.000 Z-2.000 I0.000 J1.500 F300.000 
G1 X-1.500 Y20.000 Z-2.000 F300.000 
G2 X0.000 Y21.500 Z-2.000 I1.500 J-0.000 F300.000 
G1 X20.000 Y21.500 Z-2.000 F300.000 
G2 X21.061 Y21.061 Z-2.000 I-0.000 J-1.500 F300.000 
G0 Z5.000 
G0 X21.061 Y21.061 
G0 Z3.000 
G1 Z-3.000 F150.000 
G2 X21.500 Y20.000 Z-3.000 I-1.061 J-1.061 F300.000 
G1 X21.500 Y0.000 Z-3.000 F300.000 
G2 X20.000 Y-1.500 Z-3.000 I-1.500 J0.000 F300.000 
G1 X0.000 Y-1.500 Z-3.000 F300.000 
G2 X-1.500 Y0.000 Z-3.000 I0.000 J1.500 F300.000 
G1 X-1.500 Y20.000 Z-3.000 F300.000 
G2 X0.000 Y21.500 Z-3.000 I1.500 J-0.000 F300.000 
G1 X20.000 Y21.500 Z-3.000 F300.000 
G2 X21.061 Y21.061 Z-3.000 I-0.000 J-1.500 F300.000 
G0 Z5.000 
G0 X21.061 Y21.061 
G0 Z3.000 
G1 Z-4.000 F150.000 
G2 X21.500 Y20.000 Z-4.000 I-1.061 J-1.061 F300.000 
G1 X21.500 Y0.000 Z-4.000 F300.000 
G2 X20.000 Y-1.500 Z-4.000 I-1.500 J0.000 F300.000 
G1 X0.000 Y-1.500 Z-4.000 F300.000 
G2 X-1.500 Y0.000 Z-4.000 I0.000 J1.500 F300.000 
G1 X-1.500 Y20.000 Z-4.000 F300.000 
G2 X0.000 Y21.500 Z-4.000 I1.500 J-0.000 F300.000 
G1 X20.000 Y21.500 Z-4.000 F300.000 
G2 X21.061 Y21.061 Z-4.000 I-0.000 J-1.500 F300.000 
G0 Z5.000 
(finish operation: LeadInOutDressup)
(begin postamble)
M05
G17 G54 G90 G80 G40
M2
